{"type": "FeatureCollection", "features": [ {"type": "Feature", "properties": {"norad_id": 34685, "name": "COSMOS 2251 DEB", "group": "cosmos-2251-debris", "lat": 33.038331032635774, "lon": 131.8111635904557, "alt_km": 708.250474496941, "timestamp": "2025-12-27T07:26:25.615515+00:00", "meta": {"OBJECT_NAME": "COSMOS 2251 DEB", "OBJECT_ID": "1993-036YF", "EPOCH": "2025-12-26T14:54:43.184160", "MEAN_MOTION": 14.57632396, "ECCENTRICITY": 0.0014147, "INCLINATION": 74.0295, "RA_OF_ASC_NODE": 122.3864, "ARG_OF_PERICENTER": 227.7376, "MEAN_ANOMALY": 154.4807, "EPHEMERIS_TYPE": 0, "CLASSIFICATION_TYPE": "U", "NORAD_CAT_ID": 34685, "ELEMENT_SET_NO": 999, "REV_AT_EPOCH": 88734, "BSTAR": 0.0011969, "MEAN_MOTION_DOT": 5.438e-05, "MEAN_MOTION_DDOT": 0}, "tle": {"line1": "1 34685U 93036YF  25360.62133315  .00005438  00000+0  11969-2 0  9994", "line2": "2 34685  74.0295 122.3864 0014147 227.7376 154.4807 14.57632396887347"}}, "geometry": {"type": "Point", "coordinates": [131.8111635904557, 33.038331032635774]}}, {"type": "Feature", "properties": {"norad_id": 34689, "name": "COSMOS 2251 DEB", "group": "cosmos-2251-debris", "lat": -19.360687624356913, "lon": -167.71039871604776, "alt_km": 840.1927642231703, "timestamp": "2025-12-27T07:26:25.615525+00:00", "meta": {"OBJECT_NAME": "COSMOS 2251 DEB", "OBJECT_ID": "1993-036YK", "EPOCH": "2025-12-26T14:43:37.408224", "MEAN_MOTION": 14.04610227, "ECCENTRICITY": 0.0226452, "INCLINATION": 74.0872, "RA_OF_ASC_NODE": 199.2539, "ARG_OF_PERICENTER": 265.0124, "MEAN_ANOMALY": 152.4222, "EPHEMERIS_TYPE": 0, "CLASSIFICATION_TYPE": "U", "NORAD_CAT_ID": 34689, "ELEMENT_SET_NO": 999, "REV_AT_EPOCH": 84536, "BSTAR": 0.0031359, "MEAN_MOTION_DOT": 6.283e-05, "MEAN_MOTION_DDOT": 0}, "tle": {"line1": "1 34689U 93036YK  25360.61362741  .00006283  00000+0  31359-2 0  9998", "line2": "2 34689  74.0872 199.2539 0226452 265.0124 152.4222 14.04610227845360"}}, "geometry": {"type": "Point", "coordinates": [-167.71039871604776, -19.360687624356913]}}, {"type": "Feature", "properties": {"norad_id": 34721, "name": "COSMOS 2251 DEB", "group": "cosmos-2251-debris", "lat": -29.424197063115734, "lon": -68.39271700657584, "alt_km": 912.5039421407564, "timestamp": "2025-12-27T07:26:25.615535+00:00", "meta": {"OBJECT_NAME": "COSMOS 2251 DEB", "OBJECT_ID": "1993-036YP", "EPOCH": "2025-12-26T19:42:50.469408", "MEAN_MOTION": 13.96904496, "ECCENTRICITY": 0.02225106, "INCLINATION": 73.9226, "RA_OF_ASC_NODE": 301.8159, "ARG_OF_PERICENTER": 238.149, "MEAN_ANOMALY": 152.4925, "EPHEMERIS_TYPE": 0, "CLASSIFICATION_TYPE": "U", "NORAD_CAT_ID": 34721, "ELEMENT_SET_NO": 999, "REV_AT_EPOCH": 85346, "BSTAR": 0.0010089591, "MEAN_MOTION_DOT": 1.706e-05, "MEAN_MOTION_DDOT": 0}, "tle": {"line1": "1 34721U 93036YP  25360.82141747  .00001706  00000+0  10090-2 0  9993", "line2": "2 34721  73.9226 301.8159 0222510 238.1490 152.4925 13.96904496853469"}}, "geometry": {"type": "Point", "coordinates": [-68.39271700657584, -29.424197063115734]}}, {"type": "Feature", "properties": {"norad_id": 34722, "name": "COSMOS 2251 DEB", "group": "cosmos-2251-debris", "lat": -72.65360211494756, "lon": -162.06206302308942, "alt_km": 755.355792166144, "timestamp": "2025-12-27T07:26:25.615546+00:00", "meta": {"OBJECT_NAME": "COSMOS 2251 DEB", "OBJECT_ID": "1993-036YQ", "EPOCH": "2025-12-25T22:10:17.507136", "MEAN_MOTION": 14.11971511, "ECCENTRICITY": 0.0166401, "INCLINATION": 73.8736, "RA_OF_ASC_NODE": 312.5518, "ARG_OF_PERICENTER": 235.7883, "MEAN_ANOMALY": 183.3029, "EPHEMERIS_TYPE": 0, "CLASSIFICATION_TYPE": "U", "NORAD_CAT_ID": 34722, "ELEMENT_SET_NO": 999, "REV_AT_EPOCH": 86431, "BSTAR": 0.00064598, "MEAN_MOTION_DOT": 1.32e-05, "MEAN_MOTION_DDOT": 0}, "tle": {"line1": "1 34722U 93036YQ  25359.92381374  .00001320  00000+0  64598-3 0  9990", "line2": "2 34722  73.8736 312.5518 0166401 235.7883 183.3029 14.11971511864312"}}, "geometry": {"type": "Point", "coordinates": [-162.06206302308942, -72.65360211494756]}}, {"type": "Feature", "properties": {"norad_id": 34726, "name": "COSMOS 2251 DEB", "group": "cosmos-2251-debris", "lat": -72.4539776129094, "lon": -156.54801677915674, "alt_km": 728.9210945984569, "timestamp": "2025-12-27T07:26:25.615556+00:00", "meta": {"OBJECT_NAME": "COSMOS 2251 DEB", "OBJECT_ID": "1993-036YU", "EPOCH": "2025-12-26T22:01:07.018176", "MEAN_MOTION": 14.59540361, "ECCENTRICITY": 0.00416807, "INCLINATION": 74.0294, "RA_OF_ASC_NODE": 319.2772, "ARG_OF_PERICENTER": 105.4857, "MEAN_ANOMALY": 255.0917, "EPHEMERIS_TYPE": 0, "CLASSIFICATION_TYPE": "U", "NORAD_CAT_ID": 34726, "ELEMENT_SET_NO": 999, "REV_AT_EPOCH": 88709, "BSTAR": 0.00057855589, "MEAN_MOTION_DOT": 2.753e-05, "MEAN_MOTION_DDOT": 0}, "tle": {"line1": "1 34726U 93036YU  25360.91744234  .00002753  00000+0  57856-3 0  9993", "line2": "2 34726  74.0294 319.2772 0041680 105.4857 255.0917 14.59540361887099"}}, "geometry": {"type": "Point", "coordinates": [-156.54801677915674, -72.4539776129094]}}, {"type": "Feature", "properties": {"norad_id": 34728, "name": "COSMOS 2251 DEB", "group": "cosmos-2251-debris", "lat": 17.005987408996337, "lon": -131.52355563942527, "alt_km": 628.8063236980679, "timestamp": "2025-12-27T07:26:25.615566+00:00", "meta": {"OBJECT_NAME": "COSMOS 2251 DEB", "OBJECT_ID": "1993-036YW", "EPOCH": "2025-12-26T18:18:10.094976", "MEAN_MOTION": 14.70962251, "ECCENTRICITY": 0.00417457, "INCLINATION": 74.0156, "RA_OF_ASC_NODE": 224.5108, "ARG_OF_PERICENTER": 18.4003, "MEAN_ANOMALY": 341.8666, "EPHEMERIS_TYPE": 0, "CLASSIFICATION_TYPE": "U", "NORAD_CAT_ID": 34728, "ELEMENT_SET_NO": 999, "REV_AT_EPOCH": 89006, "BSTAR": 0.00065234941, "MEAN_MOTION_DOT": 4.022e-05, "MEAN_MOTION_DDOT": 0}, "tle": {"line1": "1 34728U 93036YW  25360.76261684  .00004022  00000+0  65235-3 0  9992", "line2": "2 34728  74.0156 224.5108 0041745  18.4003 341.8666 14.70962251890062"}}, "geometry": {"type": "Point", "coordinates": [-131.52355563942527, 17.005987408996337]}}, {"type": "Feature", "properties": {"norad_id": 34729, "name": "COSMOS 2251 DEB", "group": "cosmos-2251-debris", "lat": -52.0357242182677, "lon": -51.98764458344262, "alt_km": 631.8744575870114, "timestamp": "2025-12-27T07:26:25.615576+00:00", "meta": {"OBJECT_NAME": "COSMOS 2251 DEB", "OBJECT_ID": "1993-036YX", "EPOCH": "2025-12-26T22:04:48.744768", "MEAN_MOTION": 14.83215696, "ECCENTRICITY": 0.00121285, "INCLINATION": 74.0183, "RA_OF_ASC_NODE": 330.3338, "ARG_OF_PERICENTER": 82.0166, "MEAN_ANOMALY": 301.4284, "EPHEMERIS_TYPE": 0, "CLASSIFICATION_TYPE": "U", "NORAD_CAT_ID": 34729, "ELEMENT_SET_NO": 999, "REV_AT_EPOCH": 88668, "BSTAR": 0.0024154183, "MEAN_MOTION_DOT": 0.00019784, "MEAN_MOTION_DDOT": 0}, "tle": {"line1": "1 34729U 93036YX  25360.92000862  .00019784  00000+0  24154-2 0  9995", "line2": "2 34729  74.0183 330.3338 0012128  82.0166 301.4284 14.83215696886683"}}, "geometry": {"type": "Point", "coordinates": [-51.98764458344262, -52.0357242182677]}}, {"type": "Feature", "properties": {"norad_id": 34732, "name": "COSMOS 2251 DEB", "group": "cosmos-2251-debris", "lat": 71.11331802063901, "lon": -170.77879269401464, "alt_km": 738.6684049454343, "timestamp": "2025-12-27T07:26:25.615586+00:00", "meta": {"OBJECT_NAME": "COSMOS 2251 DEB", "OBJECT_ID": "1993-036ZA", "EPOCH": "2025-12-26T11:09:52.231104", "MEAN_MOTION": 14.47315667, "ECCENTRICITY": 0.0040042, "INCLINATION": 74.0455, "RA_OF_ASC_NODE": 67.5387, "ARG_OF_PERICENTER": 215.9347, "MEAN_ANOMALY": 164.6286, "EPHEMERIS_TYPE": 0, "CLASSIFICATION_TYPE": "U", "NORAD_CAT_ID": 34732, "ELEMENT_SET_NO": 999, "REV_AT_EPOCH": 88342, "BSTAR": 0.00014622, "MEAN_MOTION_DOT": 5.13e-06, "MEAN_MOTION_DDOT": 0}, "tle": {"line1": "1 34732U 93036ZA  25360.46518786  .00000513  00000+0  14622-3 0  9997", "line2": "2 34732  74.0455  67.5387 0040042 215.9347 164.6286 14.47315667883425"}}, "geometry": {"type": "Point", "coordinates": [-170.77879269401464, 71.11331802063901]}}, {"type": "Feature", "properties": {"norad_id": 34736, "name": "COSMOS 2251 DEB", "group": "cosmos-2251-debris", "lat": 63.89659799632653, "lon": 39.842875533360505, "alt_km": 374.17450111366907, "timestamp": "2025-12-27T07:26:25.615597+00:00", "meta": {"OBJECT_NAME": "COSMOS 2251 DEB", "OBJECT_ID": "1993-036ZE", "EPOCH": "2025-12-26T11:09:44.310816", "MEAN_MOTION": 15.6128001, "ECCENTRICITY": 0.0009292, "INCLINATION": 73.9968, "RA_OF_ASC_NODE": 5.8756, "ARG_OF_PERICENTER": 335.4778, "MEAN_ANOMALY": 24.5997, "EPHEMERIS_TYPE": 0, "CLASSIFICATION_TYPE": "U", "NORAD_CAT_ID": 34736, "ELEMENT_SET_NO": 999, "REV_AT_EPOCH": 88661, "BSTAR": 0.0094893, "MEAN_MOTION_DOT": 0.00885322, "MEAN_MOTION_DDOT": 0}, "tle": {"line1": "1 34736U 93036ZE  25360.46509619  .00885322  00000+0  94893-2 0  9992", "line2": "2 34736  73.9968   5.8756 0009292 335.4778  24.5997 15.61280010886616"}}, "geometry": {"type": "Point", "coordinates": [39.842875533360505, 63.89659799632653]}}, {"type": "Feature", "properties": {"norad_id": 34738, "name": "COSMOS 2251 DEB", "group": "cosmos-2251-debris", "lat": 71.72757235083503, "lon": 176.2733505273059, "alt_km": 764.2370802698224, "timestamp": "2025-12-27T07:26:25.615607+00:00", "meta": {"OBJECT_NAME": "COSMOS 2251 DEB", "OBJECT_ID": "1993-036ZG", "EPOCH": "2025-12-26T14:30:55.417248", "MEAN_MOTION": 14.46334745, "ECCENTRICITY": 0.0047601, "INCLINATION": 74.0158, "RA_OF_ASC_NODE": 117.3521, "ARG_OF_PERICENTER": 261.0965, "MEAN_ANOMALY": 109.572, "EPHEMERIS_TYPE": 0, "CLASSIFICATION_TYPE": "U", "NORAD_CAT_ID": 34738, "ELEMENT_SET_NO": 999, "REV_AT_EPOCH": 88059, "BSTAR": 0.00037173, "MEAN_MOTION_DOT": 1.324e-05, "MEAN_MOTION_DDOT": 0}, "tle": {"line1": "1 34738U 93036ZG  25360.60480807  .00001324  00000+0  37173-3 0  9998", "line2": "2 34738  74.0158 117.3521 0047601 261.0965 109.5720 14.46334745880594"}}, "geometry": {"type": "Point", "coordinates": [176.2733505273059, 71.72757235083503]}}]}